format  = 'OEF2.0'       ! file format
rectype = 'ML'           ! record type (1L/ML)
refsys  = ECLM J2000     ! default reference system
END_OF_HEADER
va_000199
! Equinoctial elements: a, e*sin(LP), e*cos(LP), tan(i/2)*sin(LN), tan(i/2)*cos(LN), mean long.
 EQU   1.4597421408928020E+00   0.285856242303068   0.187523960450338   -0.001113610679307   -0.001969809158338  34.9409951266875
 MJD     57291.958166082 TDT
 MAG  22.961  0.150
! Non-grav parameters: model used, actual number in use, dimension
 LSP   0  0    6
! RMS    7.65544E-05   2.84583E-05   1.92970E-05   1.08878E-07   1.43177E-07   2.21482E-03
! EIG   2.03849E-08   2.27825E-08   5.43022E-08   8.15653E-08   9.40878E-07   9.23917E-05
! WEA   0.83232   0.45162   0.30619  -0.00168  -0.00187   0.09762
 COV   5.860572623323727E-09  2.178434788802238E-09  1.476992231797741E-09
 COV  -8.114120060518847E-12 -9.036346414086580E-12  1.695094308143732E-07
 COV   8.098763754137586E-10  5.488826400137484E-10 -3.016959237984385E-12
 COV  -3.359949316431219E-12  6.302651835254623E-08  3.723724878635240E-10
 COV  -2.043978631973209E-12 -2.276180741099891E-12  4.270135443343018E-08
 COV   1.185436854937079E-14  1.327362970434300E-14 -2.348175924395064E-10
 COV   2.049979382076710E-14 -2.615195950017086E-10  4.905412106176075E-06
 NOR   1.407672703237653E+14  1.719363335215692E+14 -3.660552676650471E+14
 NOR   6.574449058959025E+12  6.640743569988463E+11 -3.886555246702238E+12
 NOR   9.665011627655714E+14 -7.225531637054748E+14 -2.689023756889475E+13
 NOR   1.593097292788093E+12 -1.207073553802068E+13  1.053708639540430E+15
 NOR  -4.547833590463181E+12 -2.069610778991955E+12  1.276007676928524E+13
 NOR   1.899630557286820E+15 -2.184674729820383E+14  2.371867462990684E+11
 NOR   1.776532074322758E+14 -2.638703272905172E+10  1.783257793332258E+11
va_000200
! Equinoctial elements: a, e*sin(LP), e*cos(LP), tan(i/2)*sin(LN), tan(i/2)*cos(LN), mean long.
 EQU   1.4597425941087023E+00   0.285856410774590   0.187524074665671   -0.001113611306836   -0.001969809857220  34.9410082365693
 MJD     57291.958166082 TDT
 MAG  22.961  0.150
! Non-grav parameters: model used, actual number in use, dimension
 LSP   0  0    6
! RMS    7.65544E-05   2.84583E-05   1.92970E-05   1.08878E-07   1.43177E-07   2.21482E-03
! EIG   2.03849E-08   2.27825E-08   5.43022E-08   8.15653E-08   9.40878E-07   9.23918E-05
! WEA   0.83232   0.45162   0.30619  -0.00168  -0.00187   0.09762
 COV   5.860581745906484E-09  2.178436819082299E-09  1.476993470060452E-09
 COV  -8.114126067404884E-12 -9.036349421453034E-12  1.695095226456387E-07
 COV   8.098766243991067E-10  5.488827572425928E-10 -3.016959587511746E-12
 COV  -3.359948336736866E-12  6.302651314240585E-08  3.723725327513299E-10
 COV  -2.043978676166332E-12 -2.276179862522851E-12  4.270134687716659E-08
 COV   1.185436834970162E-14  1.327362467849357E-14 -2.348175280848252E-10
 COV   2.049978689816623E-14 -2.615194167948287E-10  4.905409788002764E-06
 NOR   1.407670466823452E+14  1.719361817848012E+14 -3.660549702903294E+14
 NOR   6.574441076750708E+12  6.640733179792950E+11 -3.886553011403076E+12
 NOR   9.665010105241460E+14 -7.225532005866210E+14 -2.689022311781888E+13
 NOR   1.593099336249906E+12 -1.207073702598225E+13  1.053708680157089E+15
 NOR  -4.547826148727003E+12 -2.069610544586179E+12  1.276008035259699E+13
 NOR   1.899628799626862E+15 -2.184673832005742E+14  2.371866287866076E+11
 NOR   1.776530823243495E+14 -2.638705747811237E+10  1.783258538724205E+11
va_000201
! Equinoctial elements: a, e*sin(LP), e*cos(LP), tan(i/2)*sin(LN), tan(i/2)*cos(LN), mean long.
 EQU   1.4597430470170345E+00   0.285856579131673   0.187524188803417   -0.001113611933938   -0.001969810555626  34.9410213375404
 MJD     57291.958166082 TDT
 MAG  22.961  0.150
! Non-grav parameters: model used, actual number in use, dimension
 LSP   0  0    6
! RMS    7.65545E-05   2.84583E-05   1.92970E-05   1.08878E-07   1.43177E-07   2.21482E-03
! EIG   2.03849E-08   2.27826E-08   5.43022E-08   8.15653E-08   9.40879E-07   9.23918E-05
! WEA   0.83232   0.45162   0.30619  -0.00168  -0.00187   0.09762
 COV   5.860590863229160E-09  2.178438848327305E-09  1.476994707715815E-09
 COV  -8.114132071487492E-12 -9.036352428195734E-12  1.695096144411752E-07
 COV   8.098768733423212E-10  5.488828744781593E-10 -3.016959937273705E-12
 COV  -3.359947358234273E-12  6.302650794567160E-08  3.723725776673673E-10
 COV  -2.043978720650469E-12 -2.276178984900717E-12  4.270133933274812E-08
 COV   1.185436815192358E-14  1.327361965801757E-14 -2.348174638105674E-10
 COV   2.049977998245792E-14 -2.615192387500117E-10  4.905407472172239E-06
 NOR   1.407668231932709E+14  1.719360301513571E+14 -3.660546731181241E+14
 NOR   6.574433099978035E+12  6.640722796674968E+11 -3.886550777625995E+12
 NOR   9.665008583870799E+14 -7.225532374433632E+14 -2.689020867658614E+13
 NOR   1.593101378321362E+12 -1.207073851294402E+13  1.053708720747176E+15
 NOR  -4.547818712057494E+12 -2.069610310341670E+12  1.276008393348632E+13
 NOR   1.899627043163797E+15 -2.184672934802175E+14  2.371865113542092E+11
 NOR   1.776529573016382E+14 -2.638708221034682E+10  1.783259283611568E+11
va_000202
! Equinoctial elements: a, e*sin(LP), e*cos(LP), tan(i/2)*sin(LN), tan(i/2)*cos(LN), mean long.
 EQU   1.4597434996340297E+00   0.285856747380360   0.187524302867655   -0.001113612560636   -0.001969811253582  34.9410344300716
 MJD     57291.958166082 TDT
 MAG  22.961  0.150
! Non-grav parameters: model used, actual number in use, dimension
 LSP   0  0    6
! RMS    7.65546E-05   2.84583E-05   1.92970E-05   1.08878E-07   1.43177E-07   2.21481E-03
! EIG   2.03849E-08   2.27826E-08   5.43023E-08   8.15654E-08   9.40879E-07   9.23919E-05
! WEA   0.83232   0.45162   0.30619  -0.00168  -0.00187   0.09762
 COV   5.860599969355448E-09  2.178440874283016E-09  1.476995943228640E-09
 COV  -8.114138064318551E-12 -9.036355424775641E-12  1.695097060232768E-07
 COV   8.098771213877701E-10  5.488829911377886E-10 -3.016960284064056E-12
 COV  -3.359946377304228E-12  6.302650269491043E-08  3.723726222148849E-10
 COV  -2.043978763242327E-12 -2.276178105769104E-12  4.270133175425715E-08
 COV   1.185436794404621E-14  1.327361462939125E-14 -2.348173993640693E-10
 COV   2.049977305853534E-14 -2.615190605820944E-10  4.905405153370909E-06
 NOR   1.407665998485314E+14  1.719358786157945E+14 -3.660543761377772E+14
 NOR   6.574425128354678E+12  6.640712420260782E+11 -3.886548545290817E+12
 NOR   9.665007063488669E+14 -7.225532742769866E+14 -2.689019424468071E+13
 NOR   1.593103419075241E+12 -1.207073999895859E+13  1.053708761312130E+15
 NOR  -4.547811280186882E+12 -2.069610076249531E+12  1.276008751208108E+13
 NOR   1.899625287834630E+15 -2.184672038177572E+14  2.371863939976906E+11
 NOR   1.776528323596701E+14 -2.638710692663438E+10  1.783260028020941E+11
va_000203
! Equinoctial elements: a, e*sin(LP), e*cos(LP), tan(i/2)*sin(LN), tan(i/2)*cos(LN), mean long.
 EQU   1.4597439519758517E+00   0.285856915526651   0.187524416862467   -0.001113613186953   -0.001969811951112  34.9410475146296
 MJD     57291.958166082 TDT
 MAG  22.961  0.150
! Non-grav parameters: model used, actual number in use, dimension
 LSP   0  0    6
! RMS    7.65546E-05   2.84583E-05   1.92970E-05   1.08878E-07   1.43177E-07   2.21481E-03
! EIG   2.03849E-08   2.27826E-08   5.43023E-08   8.15654E-08   9.40879E-07   9.23919E-05
! WEA   0.83232   0.45162   0.30619  -0.00168  -0.00187   0.09762
 COV   5.860609070331240E-09  2.178442899146677E-09  1.476997178086396E-09
 COV  -8.114144054021332E-12 -9.036358420105845E-12  1.695097975604586E-07
 COV   8.098773693335780E-10  5.488831077617618E-10 -3.016960630832980E-12
 COV  -3.359945397182603E-12  6.302649745131289E-08  3.723726667596311E-10
 COV  -2.043978805938948E-12 -2.276177227318408E-12  4.270132418311454E-08
 COV   1.185436773699705E-14  1.327360960460993E-14 -2.348173349714897E-10
 COV   2.049976613970847E-14 -2.615188825390786E-10  4.905402836289083E-06
 NOR   1.407663766401440E+14  1.719357271727392E+14 -3.660540793386831E+14
 NOR   6.574417161596731E+12  6.640702050183090E+11 -3.886546314318098E+12
 NOR   9.665005544041768E+14 -7.225533110889096E+14 -2.689017982158569E+13
 NOR   1.593105458584994E+12 -1.207074148408066E+13  1.053708801853432E+15
 NOR  -4.547803852851995E+12 -2.069609842302374E+12  1.276009108851011E+13
 NOR   1.899623533576753E+15 -2.184671142099369E+14  2.371862767128368E+11
 NOR   1.776527074939247E+14 -2.638713162786937E+10  1.783260771979124E+11
